[{"OBJECT_NAME":"STARLINK-36185","OBJECT_ID":"2025-304N","EPOCH":"2026-03-09T16:09:40.201344","MEAN_MOTION":14.99139633,"ECCENTRICITY":0.00029868,"INCLINATION":70.0027,"RA_OF_ASC_NODE":174.4434,"ARG_OF_PERICENTER":267.6224,"MEAN_ANOMALY":92.4593,"EPHEMERIS_TYPE":0,"CLASSIFICATION_TYPE":"U","NORAD_CAT_ID":67204,"ELEMENT_SET_NO":999,"REV_AT_EPOCH":1388,"BSTAR":0.00016881136,"MEAN_MOTION_DOT":1.964e-5,"MEAN_MOTION_DDOT":0},{"OBJECT_NAME":"CZ-4C DEB","OBJECT_ID":"2018-031C","EPOCH":"2026-03-09T22:35:49.335936","MEAN_MOTION":15.00077094,"ECCENTRICITY":0.00045193,"INCLINATION":97.7854,"RA_OF_ASC_NODE":153.1131,"ARG_OF_PERICENTER":226.9779,"MEAN_ANOMALY":133.1066,"EPHEMERIS_TYPE":0,"CLASSIFICATION_TYPE":"U","NORAD_CAT_ID":43261,"ELEMENT_SET_NO":999,"REV_AT_EPOCH":42952,"BSTAR":0.00069836513,"MEAN_MOTION_DOT":8.649e-5,"MEAN_MOTION_DDOT":0}]
